NORAD_CAT_ID,OBJECT_NAME,OBJECT_TYPE,EPOCH,MEAN_MOTION,ECCENTRICITY,INCLINATION,RA_OF_ASC_NODE,ARG_OF_PERICENTER,MEAN_ANOMALY,BSTAR,MEAN_MOTION_DOT,MEAN_MOTION_DDOT,TLE_LINE0,TLE_LINE1,TLE_LINE2,SEMIMAJOR_AXIS,PERIOD,APOGEE,PERIGEE,DECAYED
52100.0,STARLINK-3702,PAYLOAD,2023-07-01 23:37:30,15.08840883,0.0001082,53.2165,176.166,87.9632,272.1484,2.2388e-05,6.9e-07,0.0,0 STARLINK-3702,1 52100U 22029N   23182.98438433  .00000069  00000-0  22388-4 0  9993,2 52100  53.2165 176.1660 0001082  87.9632 272.1484 15.08840883 72456,6917.878,95.437,540.491,538.994,0.0
52100.0,STARLINK-3702,PAYLOAD,2023-07-03 09:00:36,15.08844279,0.0001066,53.2161,169.9222,80.5502,279.5611,8.4254e-05,1.054e-05,0.0,0 STARLINK-3702,1 52100U 22029N   23184.37541859  .00001054  00000-0  84254-4 0  9990,2 52100  53.2161 169.9222 0001066  80.5502 279.5611 15.08844279 72662,6917.867,95.437,540.47,538.995,0.0
52100.0,STARLINK-3702,PAYLOAD,2023-07-04 02:29:51,15.08835905,0.0001109,53.2159,166.6508,83.3567,276.7552,-2.3998e-05,-6.7e-06,0.0,0 STARLINK-3702,1 52100U 22029N   23185.10406755 -.00000670  00000-0 -23998-4 0  9990,2 52100  53.2159 166.6508 0001109  83.3567 276.7552 15.08835905 72771,6917.893,95.438,540.525,538.991,0.0
52100.0,STARLINK-3702,PAYLOAD,2023-07-05 05:31:24,15.08842115,0.0001141,53.2165,161.5966,86.4575,273.6548,2.2988e-05,7.8e-07,0.0,0 STARLINK-3702,1 52100U 22029N   23186.23014308  .00000078  00000-0  22988-4 0  9992,2 52100  53.2165 161.5966 0001141  86.4575 273.6548 15.08842115 72940,6917.874,95.437,540.528,538.95,0.0
52100.0,STARLINK-3702,PAYLOAD,2023-07-05 15:03:43,15.08834459,0.0001091,53.2162,159.8127,83.9532,276.1584,1.3946e-05,-6.6e-07,0.0,0 STARLINK-3702,1 52100U 22029N   23186.62758860 -.00000066  00000-0  13946-4 0  9995,2 52100  53.2162 159.8127 0001091  83.9532 276.1584 15.08834459 73003,6917.897,95.438,540.517,539.008,0.0
52100.0,STARLINK-3702,PAYLOAD,2023-07-06 22:51:26,15.08847295,0.0001401,53.2154,153.8647,83.1222,276.9929,-7.6302e-05,-1.502e-05,0.0,0 STARLINK-3702,1 52100U 22029N   23187.95238883 -.00001502  00000-0 -76302-4 0  9992,2 52100  53.2154 153.8647 0001401  83.1222 276.9929 15.08847295 73203,6917.858,95.437,540.692,538.754,0.0
52100.0,STARLINK-3702,PAYLOAD,2023-07-07 06:48:22,15.08797883,0.0001448,53.2162,152.3782,78.7076,281.4079,0.0007112,0.00011036,0.0,0 STARLINK-3702,1 52100U 22029N   23188.28359751  .00011036  00000-0  71120-3 0  9990,2 52100  53.2162 152.3782 0001448  78.7076 281.4079 15.08797883 73253,6918.009,95.44,540.876,538.872,0.0
52100.0,STARLINK-3702,PAYLOAD,2023-07-07 14:45:18,15.08836049,0.0001198,53.216,150.8935,85.9,274.2129,3.1163e-05,2.08e-06,0.0,0 STARLINK-3702,1 52100U 22029N   23188.61479271  .00000208  00000-0  31163-4 0  9990,2 52100  53.2160 150.8935 0001198  85.9000 274.2129 15.08836049 73303,6917.892,95.438,540.586,538.929,0.0
52100.0,STARLINK-3702,PAYLOAD,2023-07-09 03:19:10,15.08841108,0.0001256,53.2164,144.0515,88.9122,271.2014,4.5896e-05,4.43e-06,0.0,0 STARLINK-3702,1 52100U 22029N   23190.13831160  .00000443  00000-0  45896-4 0  9998,2 52100  53.2164 144.0515 0001256  88.9122 271.2014 15.08841108 73536,6917.877,95.437,540.611,538.873,0.0
52100.0,STARLINK-3702,PAYLOAD,2023-07-11 03:00:44,15.08837908,0.0001168,53.2167,135.132,87.0969,273.0157,3.813e-05,3.19e-06,0.0,0 STARLINK-3702,1 52100U 22029N   23192.12551473  .00000319  00000-0  38130-4 0  9990,2 52100  53.2167 135.1320 0001168  87.0969 273.0157 15.08837908 73839,6917.887,95.438,540.56,538.944,0.0
52100.0,STARLINK-3702,PAYLOAD,2023-07-12 06:02:17,15.08846024,0.0001156,53.2169,130.0757,88.008,272.1044,8.0763e-05,9.98e-06,0.0,0 STARLINK-3702,1 52100U 22029N   23193.25158881  .00000998  00000-0  80763-4 0  9993,2 52100  53.2169 130.0757 0001156  88.0080 272.1044 15.08846024 74005,6917.862,95.437,540.527,538.927,0.0
52100.0,STARLINK-3702,PAYLOAD,2023-07-12 12:23:50,15.08840159,0.0001145,53.2171,128.8855,84.6116,275.5007,6.1367e-05,6.89e-06,0.0,0 STARLINK-3702,1 52100U 22029N   23193.51655311  .00000689  00000-0  61367-4 0  9998,2 52100  53.2171 128.8855 0001145  84.6116 275.5007 15.08840159 74045,6917.88,95.438,540.537,538.953,0.0
52100.0,STARLINK-3702,PAYLOAD,2023-07-13 02:42:19,15.08833976,0.0001115,53.2164,126.2125,90.6428,269.4692,1.9964e-05,3e-07,0.0,0 STARLINK-3702,1 52100U 22029N   23194.11272041  .00000030  00000-0  19964-4 0  9996,2 52100  53.2164 126.2125 0001115  90.6428 269.4692 15.08833976 74130,6917.899,95.438,540.535,538.992,0.0
52100.0,STARLINK-3702,PAYLOAD,2023-07-14 18:26:57,15.08840309,0.00011,53.2163,118.7791,84.992,275.1197,0.0001116,1.489e-05,0.0,0 STARLINK-3702,1 52100U 22029N   23195.76871708  .00001489  00000-0  11160-3 0  9991,2 52100  53.2163 118.7791 0001100  84.9920 275.1197 15.08840309 74380,6917.879,95.438,540.505,538.983,0.0
52100.0,STARLINK-3702,PAYLOAD,2023-07-15 03:59:15,15.08848826,0.0001173,53.2169,116.9934,82.4381,277.6744,0.00015259,2.142e-05,0.0,0 STARLINK-3702,1 52100U 22029N   23196.16615145  .00002142  00000-0  15259-3 0  9997,2 52100  53.2169 116.9934 0001173  82.4381 277.6744 15.08848826 74443,6917.853,95.437,540.53,538.907,0.0
52100.0,STARLINK-3702,PAYLOAD,2023-07-15 18:17:44,15.08838382,0.0001088,53.2175,114.3157,97.1253,262.9863,1.1506e-05,-1.05e-06,0.0,0 STARLINK-3702,1 52100U 22029N   23196.76232259 -.00000105  00000-0  11506-4 0  9994,2 52100  53.2175 114.3157 0001088  97.1253 262.9863 15.08838382 74530,6917.885,95.438,540.503,538.998,0.0
52100.0,STARLINK-3702,PAYLOAD,2023-07-17 00:30:03,15.08853926,0.0001166,53.2171,108.6662,87.9262,272.1864,0.00011698,1.575e-05,0.0,0 STARLINK-3702,1 52100U 22029N   23198.02086938  .00001575  00000-0  11698-3 0  9998,2 52100  53.2171 108.6662 0001166  87.9262 272.1864 15.08853926 74723,6917.838,95.437,540.509,538.896,0.0
52100.0,STARLINK-3702,PAYLOAD,2023-07-17 13:13:09,15.08834714,0.0001092,53.2172,106.2879,100.8713,259.2403,1.9413e-05,2.1e-07,0.0,0 STARLINK-3702,1 52100U 22029N   23198.55080336  .00000021  00000-0  19413-4 0  9991,2 52100  53.2172 106.2879 0001092 100.8713 259.2403 15.08834714 74800,6917.897,95.438,540.517,539.006,0.0
52100.0,STARLINK-3702,PAYLOAD,2023-07-18 00:20:51,15.08840973,0.0001048,53.2164,104.2067,85.1085,275.0026,0.00017487,2.496e-05,0.0,0 STARLINK-3702,1 52100U 22029N   23199.01448159  .00002496  00000-0  17487-3 0  9990,2 52100  53.2164 104.2067 0001048  85.1085 275.0026 15.08840973 74874,6917.877,95.437,540.467,539.017,0.0
52100.0,STARLINK-3702,PAYLOAD,2023-07-19 03:22:24,15.08848707,9.77e-05,53.2163,99.1514,93.1523,266.9581,0.00021004,3.057e-05,0.0,0 STARLINK-3702,1 52100U 22029N   23200.14055743  .00003057  00000-0  21004-3 0  9994,2 52100  53.2163  99.1514 0000977  93.1523 266.9581 15.08848707 75046,6917.854,95.437,540.395,539.043,0.0
52100.0,STARLINK-3702,PAYLOAD,2023-07-20 19:07:02,15.08852991,8.17e-05,53.2164,91.7172,88.7375,271.371,-0.0002831,-4.792e-05,0.0,0 STARLINK-3702,1 52100U 22029N   23201.79656181 -.00004792  00000-0 -28310-3 0  9995,2 52100  53.2164  91.7172 0000817  88.7375 271.3710 15.08852991 75294,6917.841,95.437,540.271,539.14,0.0
52100.0,STARLINK-3702,PAYLOAD,2023-07-21 11:00:54,15.08842172,9.16e-05,53.2162,88.7427,103.7899,256.3195,0.00025902,3.837e-05,0.0,0 STARLINK-3702,1 52100U 22029N   23202.45896751  .00003837  00000-0  25902-3 0  9999,2 52100  53.2162  88.7427 0000916 103.7899 256.3195 15.08842172 75391,6917.874,95.437,540.372,539.105,0.0
52100.0,STARLINK-3702,PAYLOAD,2023-07-23 18:39:24,15.08834233,9e-05,53.2158,78.3363,82.743,277.3665,-2.2265e-05,-6.42e-06,0.0,0 STARLINK-3702,1 52100U 22029N   23204.77737143 -.00000642  00000-0 -22265-4 0  9998,2 52100  53.2158  78.3363 0000900  82.7430 277.3665 15.08834233 75743,6917.898,95.438,540.386,539.14,0.0
52100.0,STARLINK-3702,PAYLOAD,2023-07-24 18:30:11,15.08842612,7.88e-05,53.2176,73.874,91.7103,268.3979,0.00016415,2.326e-05,0.0,0 STARLINK-3702,1 52100U 22029N   23205.77097096  .00002326  00000-0  16415-3 0  9993,2 52100  53.2176  73.8740 0000788  91.7103 268.3979 15.08842612 75897,6917.872,95.437,540.283,539.192,0.0
52100.0,STARLINK-3702,PAYLOAD,2023-07-26 00:42:31,15.08846148,9.99e-05,53.2165,68.2255,80.1464,279.9641,0.00020128,2.918e-05,0.0,0 STARLINK-3702,1 52100U 22029N   23207.02953107  .00002918  00000-0  20128-3 0  9990,2 52100  53.2165  68.2255 0000999  80.1464 279.9641 15.08846148 76084,6917.862,95.437,540.418,539.036,0.0
52100.0,STARLINK-3702,PAYLOAD,2023-07-26 21:22:31,15.08855625,9.56e-05,53.2167,64.3593,80.8007,279.3094,-3.3064e-05,-8.14e-06,0.0,0 STARLINK-3702,1 52100U 22029N   23207.89064349 -.00000814  00000-0 -33064-4 0  9995,2 52100  53.2167  64.3593 0000956  80.8007 279.3094 15.08855625 76212,6917.833,95.437,540.359,539.036,0.0
52100.0,STARLINK-3702,PAYLOAD,2023-07-27 10:05:37,15.08835855,0.0001232,53.2161,61.9828,84.565,275.5482,-7.5447e-06,-4.08e-06,0.0,0 STARLINK-3702,1 52100U 22029N   23208.42057374 -.00000408  00000-0 -75447-5 0  9996,2 52100  53.2161  61.9828 0001232  84.5650 275.5482 15.08835855 76293,6917.893,95.438,540.61,538.906,0.0
52100.0,STARLINK-3702,PAYLOAD,2023-07-27 21:13:19,15.08831374,0.000115,53.2164,59.8994,103.316,256.796,-6.1034e-05,-1.259e-05,0.0,0 STARLINK-3702,1 52100U 22029N   23208.88425701 -.00001259  00000-0 -61034-4 0  9990,2 52100  53.2164  59.8994 0001150 103.3160 256.7960 15.08831374 76363,6917.907,95.438,540.567,538.976,0.0
52100.0,STARLINK-3702,PAYLOAD,2023-07-28 09:56:25,15.08834002,0.000184,53.2135,57.5177,103.8872,256.2325,-1.5282e-05,-5.31e-06,0.0,0 STARLINK-3702,1 52100U 22029N   23209.41417864 -.00000531  00000-0 -15282-4 0  9997,2 52100  53.2135  57.5177 0001840 103.8872 256.2325 15.08834002 76440,6917.899,95.438,541.037,538.491,0.0
52100.0,STARLINK-3702,PAYLOAD,2023-07-28 16:17:57,15.08839231,0.0001367,53.2155,56.3303,104.9097,255.2047,-5.2814e-05,-1.128e-05,0.0,0 STARLINK-3702,1 52100U 22029N   23209.67913638 -.00001128  00000-0 -52814-4 0  9990,2 52100  53.2155  56.3303 0001367 104.9097 255.2047 15.08839231 76488,6917.883,95.438,540.693,538.802,0.0
